1 54784U 22175AC  23332.98730425  .00005825  00000-0  38381-3 0  9992
2 54784  53.2146 177.5332 0001374  79.8378 280.2769 15.08834355 54360
1 54785U 22175AD  23333.91420273  .00002813  00000-0  19471-3 0  9997
2 54785  53.2171 118.4836 0001313 102.0321 258.0818 15.08851395 53115
1 54786U 22175AE  23333.55729494  .00001297  00000-0  99553-4 0  9990
2 54786  53.2170 160.4346 0001424  97.3002 262.8152 15.08837985 54656
1 54787U 22175AF  23333.77849123  .00002967  00000-0  20435-3 0  9994
2 54787  53.2153 173.9404 0001633 114.7429 245.3733 15.08849765 52323
1 54788U 22175AG  23333.52413531  .00002653  00000-0  18471-3 0  9997
2 54788  53.2160 160.2382 0001516  80.4002 279.7161 15.08839708 54652
1 54789U 22175AH  23333.45741956  .00000543  00000-0  52196-4 0  9994
2 54789  53.2158 145.4337 0001223  91.7147 268.3985 15.08836330 54853
1 54790U 22175AJ  23333.51676198  .00000532  00000-0  51503-4 0  9997
2 54790  53.2167 160.1932 0000983  87.1492 272.9613 15.08831399 54651
1 54791U 22175AK  23332.80286095  .00000432  00000-0  45215-4 0  9994
2 54791  53.2163 163.5533 0001389  82.3087 277.8063 15.08844868 54546
1 54792U 22175AL  23333.83738083 -.00002595  00000-0 -14509-3 0  9993
2 54792  53.2151 173.6043 0001215  88.6281 271.4851 15.08824141 52337
1 54793U 22175AM  23333.66490939  .00000621  00000-0  57116-4 0  9998
2 54793  53.2167 149.7441 0001395  98.4649 261.6502 15.08836898 52658
1 54794U 22175AN  23333.76657205 -.00001790  00000-0 -85702-4 0  9993
2 54794  53.2162 164.8499 0001036  90.5773 269.5339 15.12121854 52455
1 54795U 22175AP  23333.52044876  .00000828  00000-0  70127-4 0  9996
2 54795  53.2162 160.2106 0001323  85.6277 274.4866 15.08840603 54653
1 54796U 22175AQ  23333.77804185  .00000722  00000-0  63471-4 0  9998
2 54796  53.2162 158.9788 0001259  86.1849 273.9287 15.08842487 52531
1 54797U 22175AR  23333.52555014  .00000226  00000-0  32277-4 0  9995
2 54797  53.2153 175.2016 0001409  91.5443 268.5710 15.08836113 54447
1 54798U 22175AS  23333.51032544  .00004493  00000-0  30009-3 0  9993
2 54798  53.2144 150.1941 0001321  98.9039 261.2103 15.08850961 54793
1 54799U 22175AT  23333.79371796  .00011370  00000-0  73234-3 0  9998
2 54799  53.2169 149.1206 0001309 110.9911 249.1221 15.08787646 52673
1 54800U 22175AU  23333.51814388  .00001250  00000-0  96624-4 0  9995
2 54800  53.2154 165.1657 0001276 106.7602 253.3530 15.08835625 54584
1 54801U 22175AV  23333.82999586  .00005723  00000-0  37726-3 0  9990
2 54801  53.2156 173.5534 0001507  84.1935 275.9229 15.08852060 52337
1 54802U 22175AW  23333.61975764  .00001297  00000-0  99555-4 0  9991
2 54802  53.2184 119.3993 0001488  88.6709 271.4454 15.08837566 53079
1 54803U 22175AX  23332.97992809  .00001769  00000-0  12923-3 0  9996
2 54803  53.2151 177.4740 0001384 100.9526 259.1621 15.08840631 54368
1 54804U 22175AY  23333.51403663  .00000521  00000-0  50834-4 0  9992
2 54804  53.2163 160.1696 0001369 119.5249 240.5880 15.08837403 54658
1 54805U 22175AZ  23332.84699017  .00000597  00000-0  55621-4 0  9990
2 54805  53.2155 163.1174 0001312  92.0924 268.0219 15.08839597 54553
1 54806U 22175BA  23333.82954300  .00001789  00000-0  13049-3 0  9990
2 54806  53.2161 158.5888 0001241  81.2507 278.8625 15.08837762 52548
1 54807U 22175BB  23333.83322367  .00001409  00000-0  10657-3 0  9995
2 54807  53.2155 158.6107 0001290  87.7158 272.3982 15.08842774 52548
1 54808U 22175BC  23333.47586897  .00001004  00000-0  81143-4 0  9996
2 54808  53.2166 145.7550 0001405  80.0010 280.1141 15.08839470 54850
1 54809U 22175BD  23333.75962166  .00012850  00000-0  82331-3 0  9995
2 54809  53.2153 158.8633 0001285 102.6896 257.4240 15.08870736 52533
1 54810U 22175BE  23333.78033602  .00000981  00000-0  79695-4 0  9996
2 54810  53.2159 153.9891 0001304  81.7276 278.3864 15.08842496 52608
1 54811U 22175BF  23333.54212943  .00000679  00000-0  60752-4 0  9996
2 54811  53.2160 155.3294 0001387  94.0228 266.0922 15.08838407 54720
1 54820U 22177A   23334.12532628  .00018833  00000-0  14049-2 0  9995
2 54820  43.0034 326.6692 0000598 242.1228 117.9554 15.02550721 51031
1 54821U 22177B   23334.11311215 -.00003847  00000-0 -26979-3 0  9999
2 54821  43.0033 326.5801 0000324 253.1478 106.9328 15.02545103 51033
1 54822U 22177C   23334.10756804  .00026365  00000-0  19585-2 0  9998
2 54822  43.0031 326.5363 0000816 221.8756 138.2024 15.02555098 51037
1 54823U 22177D   23334.12199827  .00030584  00000-0  22678-2 0  9992
2 54823  43.0036 326.6446 0000666 233.7778 126.3003 15.02559721 51037
1 54824U 22177E   23334.11866627  .00012211  00000-0  91698-3 0  9997
2 54824  43.0033 326.6185 0000645 237.8317 122.2462 15.02555095 51030
1 54825U 22177F   23334.11200465 -.00000110  00000-0  69329-5 0  9994
2 54825  43.0046 326.5648 0001201 268.6422  91.4283 15.02533398 51036
1 54826U 22177G   23334.10978764  .00018927  00000-0  14119-2 0  9996
2 54826  43.0038 326.5521 0000596 218.1890 141.8910 15.02548801 51035
1 54827U 22177H   23334.10201649  .00020060  00000-0  14953-2 0  9995
2 54827  43.0036 326.4934 0000369 232.1845 127.8964 15.02548854 51036
1 54828U 22177J   23334.09868292  .00018893  00000-0  14092-2 0  9992
2 54828  43.0034 326.4682 0000363 233.7840 126.2969 15.02553906 51033
1 54829U 22177K   23334.11644571  .00007633  00000-0  57930-3 0  9997
2 54829  43.0034 326.6023 0000798 226.1279 133.9498 15.02546996 51032
1 54830U 22177L   23334.02666149  .00029807  00000-0  22109-2 0  9990
2 54830  43.0033 326.7883 0001104 230.4790 129.5954 15.02558046 51022
1 54831U 22177M   23334.10423614  .00020317  00000-0  15146-2 0  9998
2 54831  43.0034 326.5110 0000938 232.1840 127.8918 15.02539472 51038
1 54832U 22177N   23334.13556813 -.00000026  00000-0  13108-4 0  9994
2 54832  43.0019 313.7446 0000792 208.4400 151.6399 15.02549382 51183
1 54833U 22177P   23334.09535184  .00011461  00000-0  86181-3 0  9992
2 54833  43.0034 326.4429 0001119 242.4877 117.5852 15.02547593 51034
1 54834U 22177Q   23334.09091753  .00022774  00000-0  16949-2 0  9995
2 54834  43.0036 326.4101 0000672 240.5440 119.5335 15.02548481 51037
1 54835U 22177R   23334.09646344  .00019295  00000-0  14392-2 0  9992
2 54835  43.0021 326.4500 0000926 213.7069 146.3714 15.02544457 51034
1 54836U 22177S   23334.02111286  .00016600  00000-0  12411-2 0  9995
2 54836  43.0037 326.7450 0001010 224.4285 135.6476 15.02532452 51020
1 54837U 22177T   23334.08979811  .00009621  00000-0  72612-3 0  9993
2 54837  43.0034 326.4014 0000219 182.8933 177.1908 15.02544462 51034
1 54838U 22177U   23334.08094220  .00036952  00000-0  27321-2 0  9999
2 54838  43.0037 326.3328 0001097 246.1819 113.8908 15.02591115 51031
1 54839U 22177V   23334.07537495  .00010137  00000-0  76396-3 0  9999
2 54839  43.0031 326.2895 0001082 245.9190 114.1539 15.02556116 51033
1 54840U 22177W   23334.07315718  .00017559  00000-0  13112-2 0  9994
2 54840  43.0030 326.2730 0000993 229.9603 130.1152 15.02548093 51037
1 54841U 22177X   23333.41947750  .00020637  00000-0  15364-2 0  9991
2 54841  43.0038 329.9714 0000734 270.5206  89.5553 15.02582328 51910
1 54842U 22177Y   23334.13297503  .00013279  00000-0  99618-3 0  9995
2 54842  43.0039 325.8635 0001445 273.9120  86.1557 15.02535997 51042
1 54843U 22177Z   23333.48040223  .00023886  00000-0  17749-2 0  9997
2 54843  43.0038 329.5684 0000895 274.0892  85.9848 15.02586961 50948
1 54844U 22177AA  23334.12742558  .00018812  00000-0  14034-2 0  9997
2 54844  43.0039 325.7972 0000347 244.4484 115.6323 15.02550901 51044
1 54845U 22177AB  23334.13630545  .00018169  00000-0  13560-2 0  9999
2 54845  43.0027 325.8880 0000947 233.2633 126.8123 15.02551221 51047
1 54846U 22177AC  23334.13075593  .00015408  00000-0  11529-2 0  9992
2 54846  43.0035 325.8456 0001009 260.4672  99.6056 15.02544308 51041
1 54847U 22177AD  23334.02383354  .00027482  00000-0  20398-2 0  9997
2 54847  43.0037 300.7521 0000950 220.3028 139.7744 15.02567864 51326
1 54848U 22177AE  23334.13001872  .00010969  00000-0  82561-3 0  9995
2 54848  43.0028 313.6901 0000935 223.8984 136.1784 15.02543659 51189
1 54849U 22177AF  23334.12631288  .00000291  00000-0  36602-4 0  9998
2 54849  43.0044 325.8066 0001212 267.5956  92.4748 15.02536936 51047
1 54850U 22177AG  23334.12558182  .00009188  00000-0  69434-3 0  9993
2 54850  43.0007 313.6527 0000765 209.0999 150.9800 15.02536112 51185
1 54851U 22177AH  23334.12891061  .00011471  00000-0  86270-3 0  9995
2 54851  43.0036 313.6804 0000618 247.5176 112.5600 15.02542780 51187
1 54852U 22177AJ  23334.11892003  .00025629  00000-0  19046-2 0  9998
2 54852  43.0038 313.6070 0001083 232.4677 127.6067 15.02550890 51186
1 54853U 22177AK  23334.12225093  .00006409  00000-0  48891-3 0  9995
2 54853  43.0030 313.6305 0000782 231.6382 128.4390 15.02547288 51184
1 54854U 22177AL  23334.11337309  .00022893  00000-0  17043-2 0  9998
2 54854  43.0041 313.5652 0000879 216.1721 143.9062 15.02534528 51184
1 54855U 22177AM  23334.11670532  .00029418  00000-0  21827-2 0  9992
2 54855  43.0039 313.5908 0000868 236.5483 123.5277 15.02553212 51188
1 54856U 22177AN  23334.09561509  .00022731  00000-0  16916-2 0  9997
2 54856  43.0037 313.4322 0000679 235.4256 124.6522 15.02552610 51188
1 54857U 22177AP  23334.10671471  .00017490  00000-0  13061-2 0  9994
2 54857  43.0028 313.5189 0000293 212.2984 147.7841 15.02548585 51180
1 54858U 22177AQ  23334.10893271 -.00000065  00000-0  10248-4 0  9996
2 54858  43.0035 313.5311 0000797 275.8421  84.2331 15.02543890 51189
1 54859U 22177AR  23334.09894439  .00026629  00000-0  19779-2 0  9991
2 54859  43.0035 313.4569 0000774 239.8169 120.2596 15.02554106 51184
1 54860U 22177AS  23334.09339066  .00029319  00000-0  21751-2 0  9995
2 54860  43.0041 313.4146 0001016 232.6964 127.3786 15.02559196 51181
1 54861U 22177AT  23333.37878999  .00004900  00000-0  37748-3 0  9992
2 54861  43.0038 317.5134 0001009 245.1321 114.9416 15.02541114 52058
1 54862U 22177AU  23334.13335305  .00020379  00000-0  15189-2 0  9999
2 54862  43.0039 313.7280 0000831 236.9728 123.1035 15.02545750 51183
